start=new Date('2021-12-01T00:00:00.000Z').valueOf();
sats=[{"TIME_SYSTEM":"UTC","FILE":"3228256","RCS_SIZE":"LARGE","OBJECT_TYPE":"PAYLOAD","REF_FRAME":"TEME","DECAY_DATE":null,"CENTER_NAME":"EARTH","COUNTRY_CODE":"US","ECCENTRICITY":"0.00022570","ELEMENT_SET_NO":"999","MEAN_MOTION_DOT":"0.00000839","MEAN_MOTION":"15.06394081","OBJECT_ID":"2021-005P","CLASSIFICATION_TYPE":"U","MEAN_MOTION_DDOT":"0.0000000000000","TLE_LINE2":"2 47362  53.0552 223.5668 0002257  74.6292 285.4946 15.06394081 47952","APOAPSIS":"548.795","LAUNCH_DATE":"2021-01-20","SEMIMAJOR_AXIS":"6925.367","RA_OF_ASC_NODE":"223.5668","REV_AT_EPOCH":"4795","PERIAPSIS":"545.669","MEAN_ELEMENT_THEORY":"SGP4","NORAD_CAT_ID":"47362","TLE_LINE1":"1 47362U 21005P   21334.95043902  .00000839  00000-0  75263-4 0  9992","EPHEMERIS_TYPE":"0","ARG_OF_PERICENTER":"74.6292","EPOCH":"2021-11-30T22:48:37.931328","OBJECT_NAME":"STARLINK-2076","PERIOD":"95.593","MEAN_ANOMALY":"285.4946","INCLINATION":"53.0552","BSTAR":"0.00007526300000","GP_ID":"190817742","SITE":"AFETR"},{"OBJECT_ID":"2021-005Q","CLASSIFICATION_TYPE":"U","MEAN_MOTION_DDOT":"0.0000000000000","TLE_LINE2":"2 47363  53.0539 225.9259 0002072  70.5213 289.5999 15.06400234 47875","RA_OF_ASC_NODE":"225.9259","SEMIMAJOR_AXIS":"6925.348","LAUNCH_DATE":"2021-01-20","APOAPSIS":"548.648","TLE_LINE1":"1 47363U 21005Q   21334.42334114 -.00000054  00000-0  15282-4 0  9998","NORAD_CAT_ID":"47363","ARG_OF_PERICENTER":"70.5213","EPHEMERIS_TYPE":"0","REV_AT_EPOCH":"4787","MEAN_ELEMENT_THEORY":"SGP4","PERIAPSIS":"545.778","INCLINATION":"53.0539","SITE":"AFETR","GP_ID":"190816490","BSTAR":"0.00001528200000","OBJECT_NAME":"STARLINK-2077","EPOCH":"2021-11-30T10:09:36.674496","MEAN_ANOMALY":"289.5999","PERIOD":"95.592","DECAY_DATE":null,"CENTER_NAME":"EARTH","COUNTRY_CODE":"US","REF_FRAME":"TEME","RCS_SIZE":"LARGE","OBJECT_TYPE":"PAYLOAD","FILE":"3228256","TIME_SYSTEM":"UTC","ECCENTRICITY":"0.00020720","MEAN_MOTION_DOT":"-0.00000054","ELEMENT_SET_NO":"999","MEAN_MOTION":"15.06400234"},{"INCLINATION":"53.0564","GP_ID":"190784521","SITE":"AFETR","BSTAR":"0.00372110000000","OBJECT_NAME":"STARLINK-2079","EPOCH":"2021-11-30T02:23:51.052416","MEAN_ANOMALY":"262.8752","PERIOD":"90.593","TLE_LINE1":"1 47364U 21005R   21334.09989644  .01257289  00000-0  37211-2 0  9994","NORAD_CAT_ID":"47364","ARG_OF_PERICENTER":"97.2469","EPHEMERIS_TYPE":"0","REV_AT_EPOCH":"4797","MEAN_ELEMENT_THEORY":"SGP4","PERIAPSIS":"302.479","TLE_LINE2":"2 47364  53.0564 216.4231 0001724  97.2469 262.8752 15.89519474 47971","MEAN_MOTION_DDOT":"0.0000000000000","RA_OF_ASC_NODE":"216.4231","SEMIMAJOR_AXIS":"6681.766","LAUNCH_DATE":"2021-01-20","APOAPSIS":"304.783","OBJECT_ID":"2021-005R","CLASSIFICATION_TYPE":"U","MEAN_MOTION":"15.89519474","MEAN_MOTION_DOT":"0.01257289","ELEMENT_SET_NO":"999","ECCENTRICITY":"0.00017240","COUNTRY_CODE":"US","DECAY_DATE":null,"CENTER_NAME":"EARTH","RCS_SIZE":"LARGE","OBJECT_TYPE":"PAYLOAD","REF_FRAME":"TEME","FILE":"3227572","TIME_SYSTEM":"UTC"},{"ELEMENT_SET_NO":"999","MEAN_MOTION_DOT":"0.00000991","MEAN_MOTION":"15.76726111","FILE":"3227572","TIME_SYSTEM":"UTC","DECAY_DATE":null,"COUNTRY_CODE":"US","CENTER_NAME":"EARTH","RCS_SIZE":"LARGE","OBJECT_TYPE":"PAYLOAD","REF_FRAME":"TEME","ECCENTRICITY":"0.00059370","MEAN_ELEMENT_THEORY":"SGP4","PERIAPSIS":"335.737","REV_AT_EPOCH":"4957","EPHEMERIS_TYPE":"0","ARG_OF_PERICENTER":"290.2861","TLE_LINE1":"1 47365U 21005S   21334.36210989  .00000991  00000-0  10097-4 0  9994","NORAD_CAT_ID":"47365","MEAN_ANOMALY":"69.7520","PERIOD":"91.328","OBJECT_NAME":"STARLINK-2080","EPOCH":"2021-11-30T08:41:26.294496","GP_ID":"190784771","BSTAR":"0.00001009700000","SITE":"AFETR","INCLINATION":"53.0461","CLASSIFICATION_TYPE":"U","OBJECT_ID":"2021-005S","SEMIMAJOR_AXIS":"6717.861","RA_OF_ASC_NODE":"104.1683","APOAPSIS":"343.714","LAUNCH_DATE":"2021-01-20","TLE_LINE2":"2 47365  53.0461 104.1683 0005937 290.2861  69.7520 15.76726111 49572","MEAN_MOTION_DDOT":"0.0000000000000"},{"ECCENTRICITY":"0.00020570","REF_FRAME":"TEME","RCS_SIZE":"LARGE","OBJECT_TYPE":"PAYLOAD","COUNTRY_CODE":"US","DECAY_DATE":null,"CENTER_NAME":"EARTH","TIME_SYSTEM":"UTC","FILE":"3227572","MEAN_MOTION":"15.06407075","MEAN_MOTION_DOT":"0.00003812","ELEMENT_SET_NO":"999","LAUNCH_DATE":"2021-01-20","APOAPSIS":"548.616","SEMIMAJOR_AXIS":"6925.327","RA_OF_ASC_NODE":"227.3018","MEAN_MOTION_DDOT":"0.0000000000000","TLE_LINE2":"2 47366  53.0551 227.3018 0002057  65.8128 294.3076 15.06407075 47821","CLASSIFICATION_TYPE":"U","OBJECT_ID":"2021-005T","BSTAR":"0.00027463000000","GP_ID":"190785518","SITE":"AFETR","INCLINATION":"53.0551","PERIOD":"95.592","MEAN_ANOMALY":"294.3076","EPOCH":"2021-11-30T02:49:03.803232","OBJECT_NAME":"STARLINK-2081","ARG_OF_PERICENTER":"65.8128","EPHEMERIS_TYPE":"0","NORAD_CAT_ID":"47366","TLE_LINE1":"1 47366U 21005T   21334.11740513  .00003812  00000-0  27463-3 0  9998","PERIAPSIS":"545.767","MEAN_ELEMENT_THEORY":"SGP4","REV_AT_EPOCH":"4782"},{"ELEMENT_SET_NO":"999","MEAN_MOTION_DOT":"-0.00000044","MEAN_MOTION":"15.06395489","FILE":"3228256","TIME_SYSTEM":"UTC","DECAY_DATE":null,"COUNTRY_CODE":"US","CENTER_NAME":"EARTH","RCS_SIZE":"LARGE","REF_FRAME":"TEME","OBJECT_TYPE":"PAYLOAD","ECCENTRICITY":"0.00019640","MEAN_ELEMENT_THEORY":"SGP4","PERIAPSIS":"545.867","REV_AT_EPOCH":"4787","ARG_OF_PERICENTER":"75.5759","EPHEMERIS_TYPE":"0","TLE_LINE1":"1 47367U 21005U   21334.40860008 -.00000044  00000-0  15952-4 0  9999","NORAD_CAT_ID":"47367","MEAN_ANOMALY":"284.5448","PERIOD":"95.592","OBJECT_NAME":"STARLINK-2082","EPOCH":"2021-11-30T09:48:23.046912","GP_ID":"190815991","SITE":"AFETR","BSTAR":"0.00001595200000","INCLINATION":"53.0547","CLASSIFICATION_TYPE":"U","OBJECT_ID":"2021-005U","SEMIMAJOR_AXIS":"6925.362","RA_OF_ASC_NODE":"226.0058","APOAPSIS":"548.588","LAUNCH_DATE":"2021-01-20","TLE_LINE2":"2 47367  53.0547 226.0058 0001964  75.5759 284.5448 15.06395489 47875","MEAN_MOTION_DDOT":"0.0000000000000"},{"ECCENTRICITY":"0.00020230","TIME_SYSTEM":"UTC","FILE":"3228256","RCS_SIZE":"LARGE","REF_FRAME":"TEME","OBJECT_TYPE":"PAYLOAD","CENTER_NAME":"EARTH","DECAY_DATE":null,"COUNTRY_CODE":"US","MEAN_MOTION":"15.06391960","ELEMENT_SET_NO":"999","MEAN_MOTION_DOT":"-0.00001113","MEAN_MOTION_DDOT":"0.0000000000000","TLE_LINE2":"2 47368  53.0540 224.2393 0002023  71.4532 288.6677 15.06391960 47938","LAUNCH_DATE":"2021-01-20","APOAPSIS":"548.639","RA_OF_ASC_NODE":"224.2393","SEMIMAJOR_AXIS":"6925.373","OBJECT_ID":"2021-005V","CLASSIFICATION_TYPE":"U","EPOCH":"2021-11-30T19:11:00.727008","OBJECT_NAME":"STARLINK-2084","PERIOD":"95.593","MEAN_ANOMALY":"288.6677","INCLINATION":"53.0540","GP_ID":"190816241","SITE":"AFETR","BSTAR":"-0.00005582600000","REV_AT_EPOCH":"4793","PERIAPSIS":"545.837","MEAN_ELEMENT_THEORY":"SGP4","NORAD_CAT_ID":"47368","TLE_LINE1":"1 47368U 21005V   21334.79931397 -.00001113  00000-0 -55826-4 0  9995","EPHEMERIS_TYPE":"0","ARG_OF_PERICENTER":"71.4532"},{"ECCENTRICITY":"0.00021470","TIME_SYSTEM":"UTC","FILE":"3228256","RCS_SIZE":"LARGE","OBJECT_TYPE":"PAYLOAD","REF_FRAME":"TEME","DECAY_DATE":null,"COUNTRY_CODE":"US","CENTER_NAME":"EARTH","MEAN_MOTION":"15.06390199","ELEMENT_SET_NO":"999","MEAN_MOTION_DOT":"-0.00000197","APOAPSIS":"548.730","LAUNCH_DATE":"2021-01-20","RA_OF_ASC_NODE":"203.6267","SEMIMAJOR_AXIS":"6925.379","MEAN_MOTION_DDOT":"0.0000000000000","TLE_LINE2":"2 47369  53.0544 203.6267 0002147  70.8307 289.2914 15.06390199 48232","CLASSIFICATION_TYPE":"U","OBJECT_ID":"2021-005W","PERIOD":"95.593","MEAN_ANOMALY":"289.2914","EPOCH":"2021-11-30T22:30:03.426624","OBJECT_NAME":"STARLINK-2085","BSTAR":"0.00000570320000","GP_ID":"190817492","SITE":"AFETR","INCLINATION":"53.0544","PERIAPSIS":"545.757","MEAN_ELEMENT_THEORY":"SGP4","REV_AT_EPOCH":"4823","ARG_OF_PERICENTER":"70.8307","EPHEMERIS_TYPE":"0","NORAD_CAT_ID":"47369","TLE_LINE1":"1 47369U 21005W   21334.93753966 -.00000197  00000-0  57032-5 0  9998"},{"ARG_OF_PERICENTER":"76.9950","EPHEMERIS_TYPE":"0","TLE_LINE1":"1 47370U 21005X   21334.29802318  .00001680  00000-0  13165-3 0  9999","NORAD_CAT_ID":"47370","MEAN_ELEMENT_THEORY":"SGP4","PERIAPSIS":"545.630","REV_AT_EPOCH":"4842","GP_ID":"190785018","BSTAR":"0.00013165000000","SITE":"AFETR","INCLINATION":"53.0576","MEAN_ANOMALY":"283.1294","PERIOD":"95.592","OBJECT_NAME":"STARLINK-2086","EPOCH":"2021-11-30T07:09:09.202752","CLASSIFICATION_TYPE":"U","OBJECT_ID":"2021-005X","SEMIMAJOR_AXIS":"6925.346","RA_OF_ASC_NODE":"186.4851","APOAPSIS":"548.792","LAUNCH_DATE":"2021-01-20","MEAN_MOTION_DDOT":"0.0000000000000","TLE_LINE2":"2 47370  53.0576 186.4851 0002283  76.9950 283.1294 15.06400899 48422","MEAN_MOTION_DOT":"0.00001680","ELEMENT_SET_NO":"999","MEAN_MOTION":"15.06400899","CENTER_NAME":"EARTH","DECAY_DATE":null,"COUNTRY_CODE":"US","RCS_SIZE":"LARGE","OBJECT_TYPE":"PAYLOAD","REF_FRAME":"TEME","FILE":"3227572","TIME_SYSTEM":"UTC","ECCENTRICITY":"0.00022830"},{"OBJECT_ID":"2021-005Y","CLASSIFICATION_TYPE":"U","MEAN_MOTION_DDOT":"0.0000000000000","TLE_LINE2":"2 47371  53.0542 225.9605 0002099  75.9850 284.1372 15.06387980 47876","RA_OF_ASC_NODE":"225.9605","SEMIMAJOR_AXIS":"6925.385","LAUNCH_DATE":"2021-01-20","APOAPSIS":"548.704","TLE_LINE1":"1 47371U 21005Y   21334.41597897  .00000803  00000-0  72834-4 0  9992","NORAD_CAT_ID":"47371","EPHEMERIS_TYPE":"0","ARG_OF_PERICENTER":"75.9850","REV_AT_EPOCH":"4787","MEAN_ELEMENT_THEORY":"SGP4","PERIAPSIS":"545.797","INCLINATION":"53.0542","GP_ID":"190816491","SITE":"AFETR","BSTAR":"0.00007283400000","OBJECT_NAME":"STARLINK-2088","EPOCH":"2021-11-30T09:59:00.583008","MEAN_ANOMALY":"284.1372","PERIOD":"95.593","COUNTRY_CODE":"US","DECAY_DATE":null,"CENTER_NAME":"EARTH","RCS_SIZE":"LARGE","OBJECT_TYPE":"PAYLOAD","REF_FRAME":"TEME","FILE":"3228256","TIME_SYSTEM":"UTC","ECCENTRICITY":"0.00020990","MEAN_MOTION_DOT":"0.00000803","ELEMENT_SET_NO":"999","MEAN_MOTION":"15.06387980"}];
